start=new Date('2022-12-10T00:00:00.000Z').valueOf();
sats=[{"OBJECT_ID":"2022-016AN","REV_AT_EPOCH":"4580","PERIAPSIS":"537.732","REF_FRAME":"TEME","INCLINATION":"53.2180","OBJECT_NAME":"STARLINK-3505","OBJECT_TYPE":"PAYLOAD","NORAD_CAT_ID":"51750","RA_OF_ASC_NODE":"232.4803","MEAN_MOTION_DDOT":"0.0000000000000","ELEMENT_SET_NO":"999","MEAN_MOTION":"15.08839789","MEAN_ELEMENT_THEORY":"SGP4","CENTER_NAME":"EARTH","COUNTRY_CODE":"US","DECAY_DATE":null,"ARG_OF_PERICENTER":"42.2299","MEAN_MOTION_DOT":"-0.00000786","LAUNCH_DATE":"2022-02-21","TLE_LINE2":"2 51750  53.2180 232.4803 0002911  42.2299 317.8917 15.08839789 45803","BSTAR":"-0.00003125700000","RCS_SIZE":"LARGE","FILE":"3686024","TLE_LINE1":"1 51750U 22016AN  22343.87110655 -.00000786  00000-0 -31257-4 0  9991","EPOCH":"2022-12-09T20:54:23.605920","APOAPSIS":"541.760","MEAN_ANOMALY":"317.8917","PERIOD":"95.438","TIME_SYSTEM":"UTC","EPHEMERIS_TYPE":"0","CLASSIFICATION_TYPE":"U","ECCENTRICITY":"0.00029110","SEMIMAJOR_AXIS":"6917.881","GP_ID":"219862437","SITE":"AFETR"},{"REF_FRAME":"TEME","INCLINATION":"53.2165","REV_AT_EPOCH":"4579","PERIAPSIS":"538.340","OBJECT_ID":"2022-016AP","ARG_OF_PERICENTER":"14.2679","DECAY_DATE":null,"MEAN_MOTION_DOT":"0.00002441","MEAN_MOTION":"15.08830640","ELEMENT_SET_NO":"999","MEAN_ELEMENT_THEORY":"SGP4","CENTER_NAME":"EARTH","COUNTRY_CODE":"US","OBJECT_TYPE":"PAYLOAD","NORAD_CAT_ID":"51751","RA_OF_ASC_NODE":"232.4302","MEAN_MOTION_DDOT":"0.0000000000000","OBJECT_NAME":"STARLINK-3506","MEAN_ANOMALY":"345.8371","RCS_SIZE":"LARGE","FILE":"3686024","TLE_LINE1":"1 51751U 22016AP  22343.88215203  .00002441  00000-0  17148-3 0  9998","EPOCH":"2022-12-09T21:10:17.935392","APOAPSIS":"541.208","LAUNCH_DATE":"2022-02-21","BSTAR":"0.00017148000000","TLE_LINE2":"2 51751  53.2165 232.4302 0002073  14.2679 345.8371 15.08830640 45791","SITE":"AFETR","SEMIMAJOR_AXIS":"6917.909","GP_ID":"219862438","TIME_SYSTEM":"UTC","EPHEMERIS_TYPE":"0","ECCENTRICITY":"0.00020730","CLASSIFICATION_TYPE":"U","PERIOD":"95.438"},{"REV_AT_EPOCH":"4579","PERIAPSIS":"538.366","OBJECT_ID":"2022-016AQ","REF_FRAME":"TEME","INCLINATION":"53.2177","NORAD_CAT_ID":"51752","OBJECT_TYPE":"PAYLOAD","RA_OF_ASC_NODE":"232.5000","MEAN_MOTION_DDOT":"0.0000000000000","OBJECT_NAME":"STARLINK-3511","ARG_OF_PERICENTER":"55.0422","DECAY_DATE":null,"MEAN_MOTION_DOT":"-0.00011352","ELEMENT_SET_NO":"999","MEAN_MOTION":"15.08817795","MEAN_ELEMENT_THEORY":"SGP4","CENTER_NAME":"EARTH","COUNTRY_CODE":"US","RCS_SIZE":"LARGE","FILE":"3686073","TLE_LINE1":"1 51752U 22016AQ  22343.86744946 -.00011352  00000-0 -69669-3 0  9996","EPOCH":"2022-12-09T20:49:07.633344","APOAPSIS":"541.260","LAUNCH_DATE":"2022-02-21","TLE_LINE2":"2 51752  53.2177 232.5000 0002092  55.0422 305.0766 15.08817795 45793","BSTAR":"-0.00069669000000","MEAN_ANOMALY":"305.0766","TIME_SYSTEM":"UTC","EPHEMERIS_TYPE":"0","CLASSIFICATION_TYPE":"U","ECCENTRICITY":"0.00020920","PERIOD":"95.439","SITE":"AFETR","SEMIMAJOR_AXIS":"6917.948","GP_ID":"219863946"},{"INCLINATION":"53.2154","REF_FRAME":"TEME","PERIAPSIS":"537.809","REV_AT_EPOCH":"4574","OBJECT_ID":"2022-016AR","MEAN_MOTION_DOT":"-0.00004436","ARG_OF_PERICENTER":"37.5220","DECAY_DATE":null,"COUNTRY_CODE":"US","CENTER_NAME":"EARTH","MEAN_ELEMENT_THEORY":"SGP4","ELEMENT_SET_NO":"999","MEAN_MOTION":"15.08820581","RA_OF_ASC_NODE":"232.4625","MEAN_MOTION_DDOT":"0.0000000000000","OBJECT_TYPE":"PAYLOAD","NORAD_CAT_ID":"51753","OBJECT_NAME":"STARLINK-3507","MEAN_ANOMALY":"322.5973","TLE_LINE1":"1 51753U 22016AR  22343.87479732 -.00004436  00000-0 -26084-3 0  9995","APOAPSIS":"541.801","EPOCH":"2022-12-09T20:59:42.488448","FILE":"3686024","RCS_SIZE":"LARGE","BSTAR":"-0.00026084000000","TLE_LINE2":"2 51753  53.2154 232.4625 0002885  37.5220 322.5973 15.08820581 45748","LAUNCH_DATE":"2022-02-21","SITE":"AFETR","SEMIMAJOR_AXIS":"6917.940","GP_ID":"219862684","CLASSIFICATION_TYPE":"U","ECCENTRICITY":"0.00028850","EPHEMERIS_TYPE":"0","TIME_SYSTEM":"UTC","PERIOD":"95.439"},{"TIME_SYSTEM":"UTC","EPHEMERIS_TYPE":"0","ECCENTRICITY":"0.00033630","CLASSIFICATION_TYPE":"U","PERIOD":"95.436","SITE":"AFETR","GP_ID":"219862439","SEMIMAJOR_AXIS":"6917.826","RCS_SIZE":"LARGE","FILE":"3686024","TLE_LINE1":"1 51754U 22016AS  22343.86101708 -.00001624  00000-0 -83847-4 0  9997","APOAPSIS":"542.018","EPOCH":"2022-12-09T20:39:51.875712","LAUNCH_DATE":"2022-02-21","BSTAR":"-0.00008384700000","TLE_LINE2":"2 51754  53.2162 232.5185 0003363  26.9998 333.1169 15.08857778 45794","MEAN_ANOMALY":"333.1169","OBJECT_TYPE":"PAYLOAD","NORAD_CAT_ID":"51754","RA_OF_ASC_NODE":"232.5185","MEAN_MOTION_DDOT":"0.0000000000000","OBJECT_NAME":"STARLINK-3457","ARG_OF_PERICENTER":"26.9998","DECAY_DATE":null,"MEAN_MOTION_DOT":"-0.00001624","ELEMENT_SET_NO":"999","MEAN_MOTION":"15.08857778","MEAN_ELEMENT_THEORY":"SGP4","COUNTRY_CODE":"US","CENTER_NAME":"EARTH","REV_AT_EPOCH":"4579","PERIAPSIS":"537.365","OBJECT_ID":"2022-016AS","REF_FRAME":"TEME","INCLINATION":"53.2162"},{"MEAN_MOTION":"15.08804997","ELEMENT_SET_NO":"999","CENTER_NAME":"EARTH","COUNTRY_CODE":"US","MEAN_ELEMENT_THEORY":"SGP4","DECAY_DATE":null,"ARG_OF_PERICENTER":"30.2679","MEAN_MOTION_DOT":"-0.00009163","OBJECT_NAME":"STARLINK-3460","RA_OF_ASC_NODE":"232.5105","MEAN_MOTION_DDOT":"0.0000000000000","OBJECT_TYPE":"PAYLOAD","NORAD_CAT_ID":"51755","INCLINATION":"53.2154","REF_FRAME":"TEME","OBJECT_ID":"2022-016AT","REV_AT_EPOCH":"4579","PERIAPSIS":"537.683","GP_ID":"219862690","SEMIMAJOR_AXIS":"6917.987","SITE":"AFETR","PERIOD":"95.440","TIME_SYSTEM":"UTC","CLASSIFICATION_TYPE":"U","ECCENTRICITY":"0.00031360","EPHEMERIS_TYPE":"0","MEAN_ANOMALY":"329.8494","LAUNCH_DATE":"2022-02-21","TLE_LINE2":"2 51755  53.2154 232.5105 0003136  30.2679 329.8494 15.08804997 45798","BSTAR":"-0.00055881000000","FILE":"3686024","RCS_SIZE":"LARGE","TLE_LINE1":"1 51755U 22016AT  22343.86376562 -.00009163  00000-0 -55881-3 0  9992","EPOCH":"2022-12-09T20:43:49.349568","APOAPSIS":"542.022"},{"EPOCH":"2022-12-09T21:36:49.250592","TLE_LINE1":"1 51756U 22016AU  22343.90057003 -.00004739  00000-0 -28003-3 0  9994","APOAPSIS":"541.398","RCS_SIZE":"LARGE","FILE":"3686025","BSTAR":"-0.00028003000000","TLE_LINE2":"2 51756  53.2173 232.3485 0002263  40.1807 319.9352 15.08811549 45763","LAUNCH_DATE":"2022-02-21","MEAN_ANOMALY":"319.9352","EPHEMERIS_TYPE":"0","ECCENTRICITY":"0.00022630","CLASSIFICATION_TYPE":"U","TIME_SYSTEM":"UTC","PERIOD":"95.439","SITE":"AFETR","GP_ID":"219862707","SEMIMAJOR_AXIS":"6917.967","PERIAPSIS":"538.267","REV_AT_EPOCH":"4576","OBJECT_ID":"2022-016AU","REF_FRAME":"TEME","INCLINATION":"53.2173","NORAD_CAT_ID":"51756","OBJECT_TYPE":"PAYLOAD","RA_OF_ASC_NODE":"232.3485","MEAN_MOTION_DDOT":"0.0000000000000","OBJECT_NAME":"STARLINK-3513","MEAN_MOTION_DOT":"-0.00004739","DECAY_DATE":null,"ARG_OF_PERICENTER":"40.1807","MEAN_ELEMENT_THEORY":"SGP4","COUNTRY_CODE":"US","CENTER_NAME":"EARTH","ELEMENT_SET_NO":"999","MEAN_MOTION":"15.08811549"},{"EPHEMERIS_TYPE":"0","ECCENTRICITY":"0.00025510","CLASSIFICATION_TYPE":"U","TIME_SYSTEM":"UTC","PERIOD":"95.437","SITE":"AFETR","GP_ID":"219862708","SEMIMAJOR_AXIS":"6917.840","EPOCH":"2022-12-09T21:31:28.339392","TLE_LINE1":"1 51757U 22016AV  22343.89685578 -.00000172  00000-0  73416-5 0  9993","APOAPSIS":"541.470","RCS_SIZE":"LARGE","FILE":"3686025","TLE_LINE2":"2 51757  53.2188 232.3644 0002551  50.2008 309.9209 15.08853119 45806","BSTAR":"0.00000734160000","LAUNCH_DATE":"2022-02-21","MEAN_ANOMALY":"309.9209","OBJECT_TYPE":"PAYLOAD","NORAD_CAT_ID":"51757","MEAN_MOTION_DDOT":"0.0000000000000","RA_OF_ASC_NODE":"232.3644","OBJECT_NAME":"STARLINK-3459","MEAN_MOTION_DOT":"-0.00000172","ARG_OF_PERICENTER":"50.2008","DECAY_DATE":null,"MEAN_ELEMENT_THEORY":"SGP4","COUNTRY_CODE":"US","CENTER_NAME":"EARTH","ELEMENT_SET_NO":"999","MEAN_MOTION":"15.08853119","PERIAPSIS":"537.941","REV_AT_EPOCH":"4580","OBJECT_ID":"2022-016AV","REF_FRAME":"TEME","INCLINATION":"53.2188"},{"TLE_LINE2":"2 51758  53.2169 232.3734 0002282  35.0154 325.0988 15.08859482 45835","BSTAR":"0.00035503000000","LAUNCH_DATE":"2022-02-21","TLE_LINE1":"1 51758U 22016AW  22343.89412810  .00005370  00000-0  35503-3 0  9998","APOAPSIS":"541.264","EPOCH":"2022-12-09T21:27:32.667840","RCS_SIZE":"LARGE","FILE":"3686025","MEAN_ANOMALY":"325.0988","PERIOD":"95.436","EPHEMERIS_TYPE":"0","ECCENTRICITY":"0.00022820","CLASSIFICATION_TYPE":"U","TIME_SYSTEM":"UTC","SEMIMAJOR_AXIS":"6917.821","GP_ID":"219862449","SITE":"AFETR","OBJECT_ID":"2022-016AW","PERIAPSIS":"538.107","REV_AT_EPOCH":"4583","REF_FRAME":"TEME","INCLINATION":"53.2169","OBJECT_NAME":"STARLINK-3458","OBJECT_TYPE":"PAYLOAD","NORAD_CAT_ID":"51758","RA_OF_ASC_NODE":"232.3734","MEAN_MOTION_DDOT":"0.0000000000000","MEAN_ELEMENT_THEORY":"SGP4","COUNTRY_CODE":"US","CENTER_NAME":"EARTH","MEAN_MOTION":"15.08859482","ELEMENT_SET_NO":"999","MEAN_MOTION_DOT":"0.00005370","DECAY_DATE":null,"ARG_OF_PERICENTER":"35.0154"},{"ARG_OF_PERICENTER":"30.1374","DECAY_DATE":null,"MEAN_MOTION_DOT":"0.00003376","MEAN_MOTION":"15.08839930","ELEMENT_SET_NO":"999","CENTER_NAME":"EARTH","COUNTRY_CODE":"US","MEAN_ELEMENT_THEORY":"SGP4","RA_OF_ASC_NODE":"232.3819","MEAN_MOTION_DDOT":"0.0000000000000","NORAD_CAT_ID":"51759","OBJECT_TYPE":"PAYLOAD","OBJECT_NAME":"STARLINK-3456","INCLINATION":"53.2159","REF_FRAME":"TEME","REV_AT_EPOCH":"4582","PERIAPSIS":"537.851","OBJECT_ID":"2022-016AX","SITE":"AFETR","SEMIMAJOR_AXIS":"6917.881","GP_ID":"219862694","TIME_SYSTEM":"UTC","CLASSIFICATION_TYPE":"U","ECCENTRICITY":"0.00027380","EPHEMERIS_TYPE":"0","PERIOD":"95.438","MEAN_ANOMALY":"329.9775","FILE":"3686025","RCS_SIZE":"LARGE","TLE_LINE1":"1 51759U 22016AX  22343.89319196  .00003376  00000-0  23014-3 0  9990","EPOCH":"2022-12-09T21:26:11.785344","APOAPSIS":"541.640","LAUNCH_DATE":"2022-02-21","BSTAR":"0.00023014000000","TLE_LINE2":"2 51759  53.2159 232.3819 0002738  30.1374 329.9775 15.08839930 45827"}];
